IRIDIUM 112             
1 41925U 17003J   25142.56937808 -.00000021  00000+0 -14728-4 0  9992
2 41925  86.3968 251.4727 0002009  95.1625 264.9800 14.34217276437314
IRIDIUM 111             
1 41926U 17003K   25143.53345179  .00000083  00000+0  22487-4 0  9992
2 41926  86.3970 251.1314 0002366  97.8714 262.2750 14.34217320437473
IRIDIUM 113             
1 42803U 17039A   25142.67619286  .00000077  00000+0  20404-4 0  9993
2 42803  86.3952 125.4204 0002079  90.4091 269.7343 14.34217897415214
IRIDIUM 123             
1 42804U 17039B   25142.64790384  .00000057  00000+0  13467-4 0  9999
2 42804  86.3979 156.8844 0002611  96.2371 263.9122 14.34217457413973
IRIDIUM 120             
1 42805U 17039C   25143.22800653  .00000212  00000+0  68732-4 0  9994
2 42805  86.3942 125.0228 0002667  85.4162 274.7338 14.34219358415284
IRIDIUM 115             
1 42806U 17039D   25143.47926127  .00000245  00000+0  66908-4 0  9996
2 42806  86.4480 124.9930 0003016  96.7936 263.3608 14.43281023418054
IRIDIUM 118             
1 42807U 17039E   25143.44707119  .00000052  00000+0  11453-4 0  9993
2 42807  86.3977 156.5503 0002229  90.4344 269.7107 14.34217639414097
IRIDIUM 117             
1 42808U 17039F   25143.46609919  .00000069  00000+0  17681-4 0  9992
2 42808  86.3977 156.5039 0002449  97.3538 262.7936 14.34217820414126
